E-ST@R-II               
1 41459U 16025D   22328.22920270  .00011627  00000+0  45465-3 0  9991
2 41459  98.1916 145.8034 0134953  85.8358 275.8214 15.17894912361697
AAUSAT 4                
1 41460U 16025E   22328.28446881  .00019308  00000+0  61773-3 0  9994
2 41460  98.1795 153.7799 0108945  55.3882 118.2412 15.26788215362257
BEESAT-4                
1 41619U 16040W   22327.87240367  .00014987  00000+0  42265-3 0  9995
2 41619  97.1958  14.5526 0006387 262.2160  97.8360 15.36480624345158
RAVAN                   
1 41849U 16067B   22327.88169876  .00004243  00000+0  32803-3 0  9996
2 41849  98.0122 109.7234 0017227 158.5744 201.6205 15.01968599329912
CELTEE 1                
1 41850U 16067C   22327.80782968  .00002640  00000+0  22140-3 0  9995
2 41850  98.0220 104.1155 0009105 148.0151 212.1625 14.99265835329626
OPTICUBE 04             
1 41851U 16067D   22327.60489188  .00002017  00000+0  17469-3 0  9998
2 41851  98.0200 102.7351 0009097 158.7174 201.4428 14.98307898329537
AEROCUBE 8D             
1 41852U 16067E   22327.80376328  .00003006  00000+0  25132-3 0  9997
2 41852  98.0190 103.0995 0009772 152.4575 207.7166 14.99269990329562
AEROCUBE 8C             
1 41853U 16067F   22327.65443695  .00002788  00000+0  23375-3 0  9996
2 41853  98.0145 102.7495 0011135 163.1579 197.0015 14.99223956329536
PROMETHEUS 2-1          
1 41854U 16067G   22327.80906003  .00004580  00000+0  36248-3 0  9996
2 41854  98.0328 104.4061 0016742 178.0329 182.0963 15.01034099329634
PROMETHEUS 2-3          
1 41855U 16067H   22327.66680848  .00004888  00000+0  38687-3 0  9997
2 41855  98.0311 104.3148 0012873 197.6510 162.4267 15.01040079329614
INS-1B                  
1 41954U 17008G   22327.71630215  .00013384  00000+0  37746-3 0  9998
2 41954  97.2374  24.5846 0007301  36.0736 324.1000 15.36501115321152
BGUSAT                  
1 41999U 17008BD  22327.71838350  .00053275  00000+0  76748-3 0  9995
2 41999  97.2623  38.6851 0002840  20.6050 339.5319 15.55859401321250
DIDO-2                  
1 42000U 17008BE  22328.10681856  .00006082  00000+0  20464-3 0  9998
2 42000  97.2369  23.4309 0008333  58.6126 301.5930 15.31115434320475
PEASSS                  
1 42015U 17008BV  22328.14549747  .00011117  00000+0  31952-3 0  9999
2 42015  97.2436  28.3127 0005746  52.6441 307.5326 15.35962072321240
AL-FARABI 1             
1 42016U 17008BW  22328.17518573  .00018624  00000+0  45442-3 0  9995
2 42016  97.2507  32.3636 0004649  49.4259 310.7392 15.40905715321585
NAYIF-1 (EO-88)         
1 42017U 17008BX  22328.17185914  .00019080  00000+0  46163-3 0  9993
2 42017  97.2496  32.3979 0004800  46.9421 313.2227 15.41156368321617
UCLSAT                  
1 42765U 17036A   22328.06450152  .00011829  00000+0  35920-3 0  9993
2 42765  97.1773   5.9674 0010265 108.5432 251.6928 15.34174388301694
LITUANICASAT-2          
1 42768U 17036D   22327.86884041  .00037064  00000+0  74247-3 0  9995
2 42768  97.1836  10.5871 0009768  90.2266 270.0103 15.46596464301782
AALTO-1                 
1 42775U 17036L   22328.03475844  .00006260  00000+0  23066-3 0  9997
2 42775  97.1795 359.8855 0013476 115.9840 244.2789 15.28074635301121
URSA MAIOR              
1 42776U 17036M   22327.35700699  .00006544  00000+0  23513-3 0  9993
2 42776  97.1812   0.1445 0013101 116.4079 243.8507 15.28893248301063
COMPASS 2               
1 42777U 17036N   22327.84052720  .00020132  00000+0  51265-3 0  9997
2 42777  97.1837   8.8522 0010147  96.6522 263.5879 15.39544777301604
DIAMOND RED             
1 42783U 17036U   22328.09548278  .00007571  00000+0  25836-3 0  9997
2 42783  97.1809   3.5218 0011408 116.4903 243.7509 15.30545554301334
PEGASUS                 
1 42784U 17036V   22328.09490895  .00009707  00000+0  30753-3 0  9996
2 42784  97.1796   5.0627 0010945 112.5880 247.6521 15.32867977301433
DIAMOND GREEN           
1 42785U 17036W   22328.09462255  .00008110  00000+0  27578-3 0  9994
2 42785  97.1810   3.5894 0011176 118.0986 242.1386 15.30637594301320
DIAMOND BLUE            
1 42786U 17036X   22328.09421468  .00007900  00000+0  26896-3 0  9994
2 42786  97.1810   3.5803 0011270 118.0455 242.1927 15.30606105301322
NUDTSAT                 
1 42787U 17036Y   22327.96031844  .00027839  00000+0  66686-3 0  9999
2 42787  97.1815  10.5316 0008949  97.3149 262.9115 15.41352864301593
SUCHAI                  
1 42788U 17036Z   22327.86323533  .00014036  00000+0  40505-3 0  9995
2 42788  97.1798   6.9920 0010147 106.8793 253.3565 15.35743582301607
SKCUBE                  
1 42789U 17036AA  22327.69980938  .00011445  00000+0  34494-3 0  9996
2 42789  97.1798   6.0699 0010294 108.6750 251.5611 15.34419886301459
VZLUSAT-1               
1 42790U 17036AB  22327.86068332  .00021981  00000+0  53361-3 0  9992
2 42790  97.1809  10.3531 0008733  98.7899 261.4337 15.40996818301722
ROBUSTA 1B              
1 42792U 17036AD  22328.10739150  .00012557  00000+0  36744-3 0  9990
2 42792  97.1794   7.1827 0009800 106.7611 253.4709 15.35334934301573
CICERO 6                
1 42793U 17036AE  22327.08941809  .00006784  00000+0  23459-3 0  9997
2 42793  97.1790   3.0105 0010068 119.2471 240.9778 15.30164229301306
CORVUS BC2              
1 42846U 17042X   22328.05010993  .00001235  00000+0  12265-3 0  9991
2 42846  97.4014 176.2022 0009262 172.2118 187.9248 14.93376149292090
CORVUS BC1              
1 42847U 17042Y   22328.05349890  .00001284  00000+0  12706-3 0  9997
2 42847  97.4015 176.5363 0008992 170.9008 189.2377 14.93453942292102
MIRATA                  
1 43015U 17073C   22327.64486553  .00007861  00000+0  54890-3 0  9998
2 43015  97.6553 217.0868 0231803  17.2259 343.6657 14.86350730270892
MAKERSAT 0              
1 43016U 17073D   22327.68694939  .00005576  00000+0  40361-3 0  9991
2 43016  97.6560 216.2670 0241074  22.9337 338.2428 14.83908860270799
CORVUS BC3              
1 43118U 18004H   22327.78330150  .00006509  00000+0  22638-3 0  9996
2 43118  97.3483  38.5420 0009439 150.3710 209.8067 15.30013881270558
MICROMAS-2A             
1 43131U 18004W   22327.79247914  .00031268  00000+0  63686-3 0  9995
2 43131  97.3630  48.2391 0005573 133.6618 226.5094 15.46182166271106
SPACEBEE-4              
1 43139U 18004AE  22328.18421573  .00279657  00000+0  15955-2 0  9993
2 43139  97.3682  57.2843 0002349 250.0558 110.0455 15.78135380271657
CICERO 7                
1 43143U 18004AJ  22327.75125676  .00010966  00000+0  28509-3 0  9991
2 43143  97.3627  46.6844 0006112 139.3463 220.8239 15.39088505271024
GOMX-4B                 
1 43196U 18015E   22327.35205082  .00006844  00000+0  24205-3 0  9996
2 43196  97.5544 108.6649 0015846 212.8358 147.1898 15.29385619267424
GOMX-4A                 
1 43197U 18015F   22328.18119492  .00008667  00000+0  28667-3 0  9999
2 43197  97.5534 110.7654 0015604 207.7799 230.5515 15.31478867267646
AEROCUBE 12A            
1 43556U 18046C   22328.14452615  .00024576  00000+0  48296-3 0  9992
2 43556  51.6335 121.6262 0007840 252.1296 107.8837 15.47117247243961
AEROCUBE 12B            
1 43557U 18046D   22326.74131550  .00017715  00000+0  40107-3 0  9999
2 43557  51.6347 136.1618 0007757 239.4952 120.5268 15.43169495243592
SURFSAT                 
1 43614U 18070B   22328.19522562  .00090855  00000+0  62234-3 0  9999
2 43614  93.0010 167.0794 0009020  87.9089 272.3217 15.74428616236008
CP7 (DAVE)              
1 43615U 18070C   22327.53373230  .00062948  00000+0  51949-3 0  9996
2 43615  93.0015 166.4044 0009844  95.0902 265.1492 15.70073706235830
CUBEBEL-1 (BSUSAT-1)    
1 43666U 18083E   22328.20688000  .00011008  00000+0  42328-3 0  9997
2 43666  97.4077 355.2794 0013655 124.6745 301.6911 15.26493377225822
CICERO 10               
1 43690U 18088A   22328.10562372  .00008212  00000+0  30075-3 0  9990
2 43690  85.0387 210.1765 0009963 281.3797  78.6328 15.27803707224081
IRVINE01                
1 43693U 18088D   22327.71107839  .00073223  00000+0  10000-2 0  9991
2 43693  85.0236 201.7228 0002921 173.0572 187.0730 15.57202139224809
PROXIMA I               
1 43694U 18088E   22327.69242363  .00007365  00000+0  25515-3 0  9993
2 43694  85.0318 206.7323 0012973 241.3092 118.6851 15.29568749224283
PROXIMA II              
1 43696U 18088G   22327.69571474  .00007336  00000+0  25451-3 0  9990
2 43696  85.0319 206.7567 0013047 241.2514 118.7421 15.29522217224270
FACSAT-1                
1 43721U 18096C   22328.15439215  .00024328  00000+0  53224-3 0  9995
2 43721  97.3395  48.4310 0011787 192.6249 254.8615 15.44065970222549
CENTAURI-2              
1 43722U 18096D   22327.79316236  .00042637  00000+0  72411-3 0  9994
2 43722  97.3438  51.2651 0010311 191.0752 169.0275 15.51293847222668
INNOSAT-2               
1 43738U 18096V   22328.32548509  .00538722  11860-3  14947-2 0  9995
2 43738  97.3464  63.3088 0007342 235.2941 196.7631 15.93746090223453
SIRION PATHFINDER-2     
1 43759U 18099B   22327.83184183  .00001170  00000+0  10647-3 0  9996
2 43759  97.6025  30.3286 0014983  86.9385 273.3551 14.96975517216880
CORVUS BC4              
1 43767U 18099K   22327.84955916  .00001887  00000+0  17133-3 0  9998
2 43767  97.5977  28.6175 0012885  93.5802 266.6894 14.96387702216808
MOVE-II                 
1 43780U 18099Y   22327.69173581  .00002892  00000+0  24172-3 0  9994
2 43780  97.6084  31.4049 0013111  92.6528 267.6196 14.99223086216907
SPACEBEE-7              
1 43816U 18099BL  22327.70057865  .00002522  00000+0  21352-3 0  9999
2 43816  97.6094  32.1269 0013073  79.0874 281.1820 14.98833508216494
SPACEBEE-5              
1 43817U 18099BM  22327.83124193  .00007794  00000+0  56002-3 0  9999
2 43817  97.6186  36.3657 0006029  79.8208 280.3697 15.04535459216705
SPACEBEE-6              
1 43818U 18099BN  22328.12530986  .00004559  00000+0  36630-3 0  9995
2 43818  97.6112  33.7850 0016647  83.7020 276.6099 15.00413055216767
